JASON-3                 
1 41240U 16002A   23109.61194557  .00000002  00000+0  27517-3 0  9999
2 41240  66.0446  13.1770 0007761 273.8994  86.1134 12.80929131339128

SARAL                   
1 39086U 13009A   23109.76397998  .00000298  00000+0  12697-3 0  9998
2 39086  98.5484 295.9037 0003014  96.3227 263.8300 14.32177161530326

SENTINEL-3A             
1 41335U 16011A   23109.80865310  .00000304  00000+0  14379-3 0  9994
2 41335  98.6251 177.7095 0001113 106.3117 253.8186 14.26739012373450

SENTINEL-3B             
1 43437U 18039A   23109.71128138  .00000316  00000+0  14861-3 0  9990
2 43437  98.6313 177.6308 0001367  89.4670 270.6667 14.26738263259503

HAIYANG-2B              
1 43655U 18081A   23109.85260137  .00000040  00000+0  81784-4 0  9993
2 43655  99.3424 119.3498 0001919  85.9347 274.2020 13.79301141225799

CFOSAT                  
1 43662U 18083A   23109.86467654  .00007498  00000+0  38717-3 0  9998
2 43662  97.4009 130.4747 0002205 325.6879 158.2001 15.16587172247594

CRYOSAT 2               
1 36508U 10013A   23109.60268267  .00000434  00000+0  10709-3 0  9999
2 36508  92.0272 358.2538 0001887 313.1116  46.9933 14.51907087690551

SENTINEL-6              
1 46984U 20086A   23109.10819172 -.00000061  00000+0  00000+0 0  9997
2 46984  66.0470  14.1724 0008044 265.0033  95.0065 12.80930670112511

